NORAD_CAT_ID,OBJECT_NAME,OBJECT_TYPE,EPOCH,MEAN_MOTION,ECCENTRICITY,INCLINATION,RA_OF_ASC_NODE,ARG_OF_PERICENTER,MEAN_ANOMALY,BSTAR,MEAN_MOTION_DOT,MEAN_MOTION_DDOT,TLE_LINE0,TLE_LINE1,TLE_LINE2,SEMIMAJOR_AXIS,PERIOD,APOGEE,PERIGEE,DECAYED
50191.0,STARLINK-3273,PAYLOAD,2023-05-27 17:29:47,15.08839835,0.0001061,53.2149,144.4321,87.2976,272.8138,2.8683e-05,1.69e-06,0.0,0 STARLINK-3273,1 50191U 21125AM  23147.72902441  .00000169  00000-0  28683-4 0  9990,2 50191  53.2149 144.4321 0001061  87.2976 272.8138 15.08839835 82920,6917.881,95.438,540.48,539.012,0.0
50191.0,STARLINK-3273,PAYLOAD,2023-05-28 03:02:06,15.08841573,0.0001044,53.2147,142.6476,87.0008,273.1104,2.5196e-05,1.13e-06,0.0,0 STARLINK-3273,1 50191U 21125AM  23148.12646299  .00000113  00000-0  25196-4 0  9996,2 50191  53.2147 142.6476 0001044  87.0008 273.1104 15.08841573 79907,6917.876,95.437,540.463,539.018,0.0
50191.0,STARLINK-3273,PAYLOAD,2023-05-28 06:12:52,15.08843033,0.0001046,53.2149,142.053,85.9816,274.1295,3.5824e-05,2.82e-06,0.0,0 STARLINK-3273,1 50191U 21125AM  23148.25894183  .00000282  00000-0  35824-4 0  9993,2 50191  53.2149 142.0530 0001046  85.9816 274.1295 15.08843033 83001,6917.871,95.437,540.46,539.013,0.0
50191.0,STARLINK-3273,PAYLOAD,2023-05-28 09:23:38,15.08843013,0.0001048,53.2149,141.4583,85.6735,274.4377,3.4686e-05,2.64e-06,0.0,0 STARLINK-3273,1 50191U 21125AM  23148.39142162  .00000264  00000-0  34686-4 0  9996,2 50191  53.2149 141.4583 0001048  85.6735 274.4377 15.08843013 83025,6917.871,95.437,540.461,539.011,0.0
50191.0,STARLINK-3273,PAYLOAD,2023-05-29 04:28:16,15.08840802,0.0001038,53.2151,137.8898,84.1438,275.9672,5.5951e-05,6.03e-06,0.0,0 STARLINK-3273,1 50191U 21125AM  23149.18630176  .00000603  00000-0  55951-4 0  9996,2 50191  53.2151 137.8898 0001038  84.1438 275.9672 15.08840802 80067,6917.878,95.438,540.461,539.025,0.0
50191.0,STARLINK-3273,PAYLOAD,2023-05-29 06:03:39,15.08841483,0.0001035,53.2151,137.5924,84.1227,275.9884,6.0496e-05,6.75e-06,0.0,0 STARLINK-3273,1 50191U 21125AM  23149.25254114  .00000675  00000-0  60496-4 0  9997,2 50191  53.2151 137.5924 0001035  84.1227 275.9884 15.08841483 83151,6917.876,95.437,540.457,539.025,0.0
50191.0,STARLINK-3273,PAYLOAD,2023-05-29 15:35:58,15.08840189,0.0001044,53.2152,135.8083,83.0007,277.1104,4.3841e-05,4.1e-06,0.0,0 STARLINK-3273,1 50191U 21125AM  23149.64998207  .00000410  00000-0  43841-4 0  9990,2 50191  53.2152 135.8083 0001044  83.0007 277.1104 15.08840189 83211,6917.88,95.438,540.467,539.023,0.0
50191.0,STARLINK-3273,PAYLOAD,2023-05-30 02:43:41,15.08833135,0.0001062,53.2152,133.7268,83.01,277.1013,-1.9994e-05,-6.06e-06,0.0,0 STARLINK-3273,1 50191U 21125AM  23150.11367031 -.00000606  00000-0 -19994-4 0  9990,2 50191  53.2152 133.7268 0001062  83.0100 277.1013 15.08833135 80205,6917.901,95.438,540.501,539.032,0.0
50191.0,STARLINK-3273,PAYLOAD,2023-05-30 09:05:13,15.08834814,0.000106,53.2152,132.537,82.0815,278.0298,-1.6548e-05,-5.51e-06,0.0,0 STARLINK-3273,1 50191U 21125AM  23150.37862981 -.00000551  00000-0 -16548-4 0  9993,2 50191  53.2152 132.5370 0001060  82.0815 278.0298 15.08834814 83322,6917.896,95.438,540.495,539.028,0.0
50191.0,STARLINK-3273,PAYLOAD,2023-05-31 04:09:51,15.0883796,0.0001147,53.2161,128.9692,84.4235,275.6888,3.0737e-05,2.01e-06,0.0,0 STARLINK-3273,1 50191U 21125AM  23151.17350807  .00000201  00000-0  30737-4 0  9997,2 50191  53.2161 128.9692 0001147  84.4235 275.6888 15.08837960 80360,6917.887,95.438,540.545,538.958,0.0
50191.0,STARLINK-3273,PAYLOAD,2023-05-31 15:17:33,15.08836764,0.0001172,53.2165,126.8878,83.7949,276.3177,4.3938e-05,4.11e-06,0.0,0 STARLINK-3273,1 50191U 21125AM  23151.63718943  .00000411  00000-0  43938-4 0  9997,2 50191  53.2165 126.8878 0001172  83.7949 276.3177 15.08836764 83519,6917.89,95.438,540.566,538.945,0.0
50191.0,STARLINK-3273,PAYLOAD,2023-06-01 04:00:38,15.08833668,0.0001147,53.2156,124.5094,95.3931,264.7192,5.4898e-05,5.86e-06,0.0,0 STARLINK-3273,1 50191U 21125AM  23152.16711283  .00000586  00000-0  54898-4 0  9996,2 50191  53.2156 124.5094 0001147  95.3931 264.7192 15.08833668 83592,6917.9,95.438,540.558,538.971,0.0
50191.0,STARLINK-3273,PAYLOAD,2023-06-02 05:26:48,15.08838527,0.0001298,53.2158,119.7511,83.0818,277.0321,4.447e-05,4.2e-06,0.0,0 STARLINK-3273,1 50191U 21125AM  23153.22695325  .00000420  00000-0  44470-4 0  9994,2 50191  53.2158 119.7511 0001298  83.0818 277.0321 15.08838527 80675,6917.885,95.438,540.648,538.852,0.0
50191.0,STARLINK-3273,PAYLOAD,2023-06-02 14:59:07,15.08836687,0.0001354,53.2159,117.966,81.3781,278.7364,2.6022e-05,1.26e-06,0.0,0 STARLINK-3273,1 50191U 21125AM  23153.62439606  .00000126  00000-0  26022-4 0  9992,2 50191  53.2159 117.9660 0001354  81.3781 278.7364 15.08836687 83813,6917.891,95.438,540.692,538.819,0.0
50191.0,STARLINK-3273,PAYLOAD,2023-06-03 06:52:59,15.08838907,0.0001298,53.2158,114.9923,82.2334,277.8805,4.5656e-05,4.39e-06,0.0,0 STARLINK-3273,1 50191U 21125AM  23154.28679543  .00000439  00000-0  45656-4 0  9992,2 50191  53.2158 114.9923 0001298  82.2334 277.8805 15.08838907 80838,6917.884,95.438,540.647,538.851,0.0
50191.0,STARLINK-3273,PAYLOAD,2023-06-04 03:32:59,15.08845005,0.0001232,53.2164,111.1246,89.046,271.0673,8.3845e-05,1.047e-05,0.0,0 STARLINK-3273,1 50191U 21125AM  23155.14790991  .00001047  00000-0  83845-4 0  9997,2 50191  53.2164 111.1246 0001232  89.0460 271.0673 15.08845005 84048,6917.865,95.437,540.582,538.878,0.0
50191.0,STARLINK-3273,PAYLOAD,2023-06-04 16:16:04,15.08839602,0.0001218,53.2159,108.7466,86.6039,273.5092,6.4141e-05,7.33e-06,0.0,0 STARLINK-3273,1 50191U 21125AM  23155.67783322  .00000733  00000-0  64141-4 0  9994,2 50191  53.2159 108.7466 0001218  86.6039 273.5092 15.08839602 81042,6917.882,95.438,540.589,538.904,0.0
50191.0,STARLINK-3273,PAYLOAD,2023-06-05 06:34:32,15.08844224,0.0001243,53.2163,106.0703,91.8131,268.3003,6.2865e-05,7.13e-06,0.0,0 STARLINK-3273,1 50191U 21125AM  23156.27398995  .00000713  00000-0  62865-4 0  9998,2 50191  53.2163 106.0703 0001243  91.8131 268.3003 15.08844224 84213,6917.867,95.437,540.592,538.873,0.0
50191.0,STARLINK-3273,PAYLOAD,2023-06-05 16:06:52,15.08837083,0.0001126,53.2163,104.2882,94.6694,265.4427,8.3181e-06,-1.55e-06,0.0,0 STARLINK-3273,1 50191U 21125AM  23156.67143603 -.00000155  00000-0  83181-5 0  9992,2 50191  53.2163 104.2882 0001126  94.6694 265.4427 15.08837083 84275,6917.889,95.438,540.533,538.975,0.0
50191.0,STARLINK-3273,PAYLOAD,2023-06-06 03:14:34,15.08838226,0.0001269,53.2159,102.2047,91.942,268.1717,-3.5926e-05,-8.6e-06,0.0,0 STARLINK-3273,1 50191U 21125AM  23157.13511793 -.00000860  00000-0 -35926-4 0  9990,2 50191  53.2159 102.2047 0001269  91.9420 268.1717 15.08838226 81264,6917.886,95.438,540.629,538.873,0.0
50191.0,STARLINK-3273,PAYLOAD,2023-06-06 06:25:20,15.08839041,0.0001275,53.216,101.6098,91.377,268.7368,-3.3819e-05,-8.26e-06,0.0,0 STARLINK-3273,1 50191U 21125AM  23157.26759742 -.00000826  00000-0 -33819-4 0  9993,2 50191  53.2160 101.6098 0001275  91.3770 268.7368 15.08839041 84362,6917.883,95.438,540.63,538.866,0.0
50191.0,STARLINK-3273,PAYLOAD,2023-06-06 15:57:40,15.08825395,0.0001233,53.2161,99.8264,89.2714,270.842,-6.4925e-05,-1.321e-05,0.0,0 STARLINK-3273,1 50191U 21125AM  23157.66504876 -.00001321  00000-0 -64925-4 0  9996,2 50191  53.2161  99.8264 0001233  89.2714 270.8420 15.08825395 81349,6917.925,95.438,540.643,538.937,0.0
50191.0,STARLINK-3273,PAYLOAD,2023-06-06 20:43:49,15.08827765,0.0001215,53.2166,98.9361,86.868,273.2451,-3.9723e-05,-9.2e-06,0.0,0 STARLINK-3273,1 50191U 21125AM  23157.86376838 -.00000920  00000-0 -39723-4 0  9995,2 50191  53.2166  98.9361 0001215  86.8680 273.2451 15.08827765 84456,6917.918,95.438,540.623,538.942,0.0
50191.0,STARLINK-3273,PAYLOAD,2023-06-07 03:05:21,15.08831687,0.0001256,53.2164,97.7457,93.0475,267.0661,-1.0975e-05,-4.62e-06,0.0,0 STARLINK-3273,1 50191U 21125AM  23158.12872632 -.00000462  00000-0 -10975-4 0  9997,2 50191  53.2164  97.7457 0001256  93.0475 267.0661 15.08831687 81419,6917.906,95.438,540.64,538.902,0.0
50191.0,STARLINK-3273,PAYLOAD,2023-06-07 18:59:13,15.08835681,0.0001186,53.2166,94.7722,85.728,274.3848,9.8557e-05,1.281e-05,0.0,0 STARLINK-3273,1 50191U 21125AM  23158.79112359  .00001281  00000-0  98557-4 0  9993,2 50191  53.2166  94.7722 0001186  85.7280 274.3848 15.08835681 84595,6917.894,95.438,540.579,538.938,0.0
50191.0,STARLINK-3273,PAYLOAD,2023-06-08 02:56:08,15.08844571,0.0001186,53.2167,93.2856,89.6975,270.4153,0.00018982,2.735e-05,0.0,0 STARLINK-3273,1 50191U 21125AM  23159.12231656  .00002735  00000-0  18982-3 0  9991,2 50191  53.2167  93.2856 0001186  89.6975 270.4153 15.08844571 81560,6917.866,95.437,540.552,538.911,0.0
50191.0,STARLINK-3273,PAYLOAD,2023-06-08 23:36:09,15.08834081,0.0001174,53.2168,89.4205,86.8142,273.2984,0.00013079,1.794e-05,0.0,0 STARLINK-3273,1 50191U 21125AM  23159.98344742  .00001794  00000-0  13079-3 0  9992,2 50191  53.2168  89.4205 0001174  86.8142 273.2984 15.08834081 81690,6917.898,95.438,540.576,538.951,0.0
50191.0,STARLINK-3273,PAYLOAD,2023-06-09 04:22:18,15.08841678,0.0001153,53.2168,88.5282,86.8032,273.3092,0.00014022,1.945e-05,0.0,0 STARLINK-3273,1 50191U 21125AM  23160.18216274  .00001945  00000-0  14022-3 0  9991,2 50191  53.2168  88.5282 0001153  86.8032 273.3092 15.08841678 81725,6917.875,95.437,540.538,538.943,0.0
50191.0,STARLINK-3273,PAYLOAD,2023-06-09 12:19:14,15.08840565,0.0001149,53.2168,87.0407,87.3975,272.7149,6.5978e-05,7.62e-06,0.0,0 STARLINK-3273,1 50191U 21125AM  23160.51336528  .00000762  00000-0  65978-4 0  9996,2 50191  53.2168  87.0407 0001149  87.3975 272.7149 15.08840565 84852,6917.879,95.438,540.539,538.949,0.0
50191.0,STARLINK-3273,PAYLOAD,2023-06-10 12:10:01,15.08844927,0.000112,53.2158,82.5786,86.0488,274.0632,-3.3889e-05,-8.27e-06,0.0,0 STARLINK-3273,1 50191U 21125AM  23161.50696257 -.00000827  00000-0 -33889-4 0  9994,2 50191  53.2158  82.5786 0001120  86.0488 274.0632 15.08844927 85001,6917.865,95.437,540.505,538.956,0.0
